0 COSMOS 1322
1 12977U 81116C   13281.97416687 -.00000020  00000-0 -49002-4 0  3274
2 12977 073.9831 207.6971 0092528 075.5575 356.4097 12.28675614429282
0 COSMOS 1322
1 12977U 81116C   13284.19034894 -.00000045  00000-0 -26006-3 0  3283
2 12977 073.9833 204.8596 0092555 072.3396 079.1248 12.28675757429557
0 COSMOS 1322
1 12977U 81116C   13286.30565251  .00000010  00000-0  21049-3 0  3297
2 12977 073.9833 202.1513 0092604 069.2775 075.6241 12.28675235429812
0 COSMOS 1322
1 12977U 81116C   13288.49573190  .00000014  00000-0  24155-3 0  3307
2 12977 073.9832 199.3474 0092652 066.1089 042.8680 12.28675314430083
0 COSMOS 1322
1 12977U 81116C   13290.76461734  .00000029  00000-0  37079-3 0  3316
2 12977 073.9827 196.4427 0092668 062.8277 358.6899 12.28675267430360
0 COSMOS 1322
1 12977U 81116C   13293.12732910 -.00000012  00000-0  22951-4 0  3324
2 12977 073.9823 193.4179 0092690 059.4016 009.5346 12.28675833430655
0 COSMOS 1322
1 12977U 81116C   13295.18500516 -.00000021  00000-0 -53835-4 0  3334
2 12977 073.9821 190.7833 0092737 056.4336 111.1224 12.28675841430906
